CZ-3B R/B               
1 62375U 24246B   25010.25359062  .00100604 -10902-6  17860-2 0  9995
2 62375  28.3404 306.7465 7215891 192.2873 129.6350  2.41357948   494
2024-247B               
1 62378U 24247B   25010.39386367  .00010742  00000+0  51892-3 0  9999
2 62378  44.9958 253.6742 0001387 178.6034 181.4850 15.18833700  3178
2024-247C               
1 62379U 24247C   25010.65282622  .00010492  00000+0  50258-3 0  9995
2 62379  45.0034 252.2519 0002093 149.8470 210.2530 15.19149137  3218
2024-247D               
1 62380U 24247D   25010.38947327  .00009426  00000+0  45251-3 0  9999
2 62380  44.9985 253.6458 0001535 112.4732 247.6311 15.19175461  3172
2024-247E               
1 62381U 24247E   25010.38944207  .00008901  00000+0  42843-3 0  9995
2 62381  44.9969 253.6446 0001943 107.8480 252.2612 15.19146759  3177
2024-247F               
1 62382U 24247F   25010.06088242  .00010225  00000+0  49024-3 0  9999
2 62382  44.9935 255.4045 0005008  72.3784 287.7642 15.19136535  3116
2024-247G               
1 62383U 24247G   25009.92820537  .00010278  00000+0  49117-3 0  9995
2 62383  44.9981 256.1200 0001831 103.1814 256.9270 15.19249473  3106
2024-247H               
1 62384U 24247H   25010.66838858 -.00105804  00000+0 -55284-2 0  9997
2 62384  44.9989 252.3413 0005066  10.5408 349.5575 15.15690434  3215
2024-247J               
1 62385U 24247J   25010.38013551  .00017557  00000+0  80828-3 0  9990
2 62385  44.9948 253.5788 0002998 100.7174 259.4044 15.20131494  3179
2024-247K               
1 62386U 24247K   25010.07086934  .00011063  00000+0  54111-3 0  9994
2 62386  44.9956 255.4873 0002963 212.0722 147.9977 15.18373346  3114
2024-247L               
1 62387U 24247L   25010.37976992  .00018225  00000+0  83739-3 0  9995
2 62387  44.9963 253.5751 0002918 101.6070 258.5138 15.20177714  3174
2024-247M               
1 62388U 24247M   25010.39735173  .00008043  00000+0  39525-3 0  9993
2 62388  45.0004 253.7020 0001645 244.2814 115.7895 15.18536939  3179
2024-247N               
1 62389U 24247N   25010.07643573 -.00093280  00000+0 -48513-2 0  9996
2 62389  44.9967 255.5283 0001952 203.0746 157.0045 15.15794976  3119
2024-247P               
1 62390U 24247P   25005.72872000  .00016217  00000+0  81076-3 0  9998
2 62390  44.9991 278.8774 0001451 324.2414  35.8368 15.17317663  2456
2024-247Q               
1 62391U 24247Q   25009.93699057  .00018768  00000+0  89726-3 0  9998
2 62391  44.9899 256.1798 0003570 209.5768 150.4910 15.18785471  3107
2024-247R               
1 62392U 24247R   25010.39995527  .00009759  00000+0  47891-3 0  9999
2 62392  44.9970 253.7187 0002968 222.7016 137.3633 15.18374859  3173
2024-247S               
1 62393U 24247S   25009.93592796  .00025842  00000+0  12200-2 0  9995
2 62393  44.9919 256.1711 0004582 214.4133 145.6450 15.19048824  3102
2024-247T               
1 62394U 24247T   25009.93800413  .00019142  00000+0  91642-3 0  9998
2 62394  44.9924 256.1851 0004227 213.8122 146.2489 15.18722514  3104
2024-247U               
1 62395U 24247U   25008.93433970  .00120881  00000+0  53956-2 0  9996
2 62395  44.9958 261.3796 0006156 222.5134 137.5270 15.20239529  2945
2024-247V               
1 62396U 24247V   25010.37994537  .00018574  00000+0  85348-3 0  9995
2 62396  44.9958 253.5768 0002976 100.5115 259.6100 15.20163003  3175
2024-247W               
1 62397U 24247W   25010.37715078  .00025986  00000+0  11731-2 0  9996
2 62397  44.9950 253.5573 0002526 113.8582 246.2563 15.20594289  3177
2024-247X               
1 62398U 24247X   25010.37745482  .00027253  00000+0  12301-2 0  9992
2 62398  44.9952 253.5600 0002553 112.0694 248.0458 15.20576388  3179
2024-247Y               
1 62399U 24247Y   25010.38009404  .00018158  00000+0  83527-3 0  9994
2 62399  44.9920 253.5770 0003195  99.9658 260.1583 15.20139615  3171
2024-247Z               
1 62400U 24247Z   25010.38531969  .00007409  00000+0  35575-3 0  9990
2 62400  44.9945 253.6133 0003270 104.0789 256.0454 15.19447209  3172
2024-247AA              
1 62401U 24247AA  25010.38005533  .00015332  00000+0  70966-3 0  9991
2 62401  44.9927 253.5765 0003930 103.1980 256.9338 15.20031845  3176
2024-247AB              
1 62402U 24247AB  25010.04880979  .00020279  00000+0  92439-3 0  9995
2 62402  44.9915 255.3310 0003898 107.5125 252.6181 15.20385521  3118
2024-247AC              
1 62403U 24247AC  25009.61037614  .00015263  00000+0  73817-3 0  9993
2 62403  44.9925 257.9657 0003921 210.9123 149.1526 15.18512749  3042
2024-247AD              
1 62404U 24247AD  25010.38001437  .00019383  00000+0  89022-3 0  9996
2 62404  44.9956 253.5776 0002927 101.0958 259.0251 15.20156111  3172
2024-247AE              
1 62405U 24247AE  25009.91690937  .00021586  00000+0  98113-3 0  9992
2 62405  44.9916 256.0372 0003988 107.8342 252.2974 15.20450852  3095
STRIX-2                 
1 62406U 24248A   25010.83692180  .00009161  00000+0  73448-3 0  9998
2 62406  97.5656 329.9359 0017602 302.1134  57.8381 15.00210211  3039
ELECTRON KICK STAGE R/B 
1 62407U 24248B   25009.96771465  .00020867  00000+0  12057-2 0  9999
2 62407  97.5609 329.3937 0055774 318.2685  41.4297 15.10986936  2922
STARLINK-11444 [DTC]    
1 62409U 24249A   25010.79959641 -.00002978  00000+0 -14254-4 0  9997
2 62409  43.0001 199.1626 0001783 268.9061  91.1604 15.77852275  2996
STARLINK-11493 [DTC]    
1 62410U 24249B   25010.79471774  .00017663  00000+0  10414-3 0  9993
2 62410  42.9992 199.1224 0001860 260.9912  99.0747 15.77858651  2991
STARLINK-11453 [DTC]    
1 62411U 24249C   25010.78984047 -.00000753  00000+0 -14608-5 0  9990
2 62411  42.9992 199.0838 0001489 271.7653  88.3047 15.77855746  2672
STARLINK-11462 [DTC]    
1 62412U 24249D   25010.78495626  .00008341  00000+0  50722-4 0  9996
2 62412  42.9979 199.0417 0001469 255.4271 104.6436 15.77867935  2660
STARLINK-11441 [DTC]    
1 62413U 24249E   25010.78008190 -.00001153  00000+0 -37636-5 0  9999
2 62413  42.9988 199.0041 0001441 281.7164  78.3544 15.77853760  2676
STARLINK-11445 [DTC]    
1 62414U 24249F   25010.77519752  .00030259  00000+0  17593-3 0  9995
2 62414  42.9984 198.9616 0001933 237.1912 122.8772 15.77880456  2996
STARLINK-11355 [DTC]    
1 62415U 24249G   25010.58050806 -.00519148  00000+0 -29808-2 0  9997
2 62415  43.0010 200.0810 0002330 251.5552 108.5066 15.79175501  2955
STARLINK-11446 [DTC]    
1 62416U 24249H   25010.57697425 -.00179164  00000+0 -89421-3 0  9999
2 62416  43.0007 200.0531 0002523 257.6375 102.4214 15.81325655  2910
STARLINK-11428 [DTC]    
1 62417U 24249J   25010.82470795  .00122285  00000+0  51505-3 0  9999
2 62417  43.0016 198.4648 0002613 261.5104  98.5473 15.84348567  3007
STARLINK-11447 [DTC]    
1 62418U 24249K   25010.57371690 -.00001822  00000+0 -53692-5 0  9992
2 62418  43.0006 200.0262 0002524 271.6851  88.3732 15.84396663  2915
STARLINK-11439 [DTC]    
1 62419U 24249L   25010.76341899 -.00010362  00000+0 -41683-4 0  9997
2 62419  43.0006 198.8662 0001669 244.9667 115.1032 15.84383692  2450
STARLINK-11434 [DTC]    
1 62420U 24249M   25010.76232659  .00070507  00000+0  29830-3 0  9996
2 62420  43.0004 198.8576 0001776 249.5265 110.5417 15.84450264  2948
STARLINK-11461 [DTC]    
1 62421U 24249N   25010.00530836 -.00327593  00000+0 -14783-2 0  9994
2 62421  43.0009 203.5042 0003013 259.9431 100.1102 15.83841534  2828
STARLINK-32692          
1 62422U 24249P   25010.79266831 -.00488419  00000+0 -46136-2 0  9994
2 62422  42.9986 199.1047 0001622 243.9158 116.1542 15.67595058  2946
STARLINK-32680          
1 62423U 24249Q   25010.83675650 -.00651399  00000+0 -88399-2 0  9999
2 62423  42.9985 199.4573 0002425 311.0302  49.0352 15.58946414  2997
STARLINK-32638          
1 62424U 24249R   25010.57997024 -.00680014  00000+0 -90707-2 0  9995
2 62424  42.9976 200.9688 0001750 263.5200  96.5464 15.59494520  2630
STARLINK-32283          
1 62425U 24249S   25010.57935599 -.00872958  00000+0 -11585-1 0  9991
2 62425  42.9991 200.9653 0002759 278.2955  81.7596 15.59820936  2951
STARLINK-32676          
1 62426U 24249T   25010.83594522 -.00612385  00000+0 -83606-2 0  9998
2 62426  42.9993 199.4536 0001255 329.5420  30.5370 15.58669654  2996
STARLINK-32659          
1 62427U 24249U   25010.51430399  .00483068  00000+0  50209-2 0  9990
2 62427  42.9989 201.3372 0015175 244.0354 115.8947 15.62163056  2959
STARLINK-32614          
1 62428U 24249V   25010.77084494 -.00771852  00000+0 -10593-1 0  9994
2 62428  42.9993 199.8214 0001984 331.2352  28.8401 15.59052272  2671
STARLINK-32418          
1 62429U 24249W   25010.00199079 -.00550955  00000+0 -66949-2 0  9993
2 62429  43.0001 204.3724 0002881 260.0438 100.0101 15.61480558  2814
RESURS-P 5              
1 62430U 24250A   25010.81065297  .00005936  00000+0  19479-3 0  9999
2 62430  97.2603 300.4801 0002858  77.0158 283.1403 15.31967005  2540
SL-4 R/B                
1 62431U 24250B   25010.54248075  .00171547  10588-4  98565-3 0  9999
2 62431  97.2717 300.8934 0115471 359.5498   0.5641 15.69649729  2523
STARLINK-32702          
1 62432U 24251A   25010.85754301 -.00151317  00000+0 -71040-3 0  9996
2 62432  53.1647 152.6809 0000556  57.5706 302.5372 15.82781201  3013
STARLINK-32712          
1 62433U 24251B   25010.85722868 -.00160597  00000+0 -75462-3 0  9992
2 62433  53.1646 152.6784 0000639  56.2268 303.8817 15.82790991  3010
STARLINK-32674          
1 62434U 24251C   25010.85676913 -.00098756  00000+0 -46064-3 0  9995
2 62434  53.1645 152.6746 0000835 120.5589 239.5517 15.82736693  3018
STARLINK-32711          
1 62435U 24251D   25010.85627317 -.00125106  00000+0 -58401-3 0  9998
2 62435  53.1643 152.6723 0001219 136.4306 223.6814 15.82815308  3017
STARLINK-32697          
1 62436U 24251E   25010.79234148 -.00171335  00000+0 -80088-3 0  9999
2 62436  53.1645 152.9843 0000639 334.1678  25.9313 15.82933658  3005
